[{"OBJECT_NAME":"LILIUM-2","OBJECT_ID":"2025-276P","EPOCH":"2026-03-09T17:57:43.169184","MEAN_MOTION":15.17362397,"ECCENTRICITY":0.0005992,"INCLINATION":97.4225,"RA_OF_ASC_NODE":143.7942,"ARG_OF_PERICENTER":8.9383,"MEAN_ANOMALY":351.1956,"EPHEMERIS_TYPE":0,"CLASSIFICATION_TYPE":"U","NORAD_CAT_ID":66679,"ELEMENT_SET_NO":999,"REV_AT_EPOCH":1531,"BSTAR":0.00024211836,"MEAN_MOTION_DOT":4.769e-5,"MEAN_MOTION_DDOT":0},{"OBJECT_NAME":"XIWANG-5 02","OBJECT_ID":"2025-296A","EPOCH":"2026-03-09T21:42:05.145408","MEAN_MOTION":15.14679874,"ECCENTRICITY":0.00016159,"INCLINATION":41.3524,"RA_OF_ASC_NODE":326.5092,"ARG_OF_PERICENTER":203.554,"MEAN_ANOMALY":156.5206,"EPHEMERIS_TYPE":0,"CLASSIFICATION_TYPE":"U","NORAD_CAT_ID":67069,"ELEMENT_SET_NO":999,"REV_AT_EPOCH":1317,"BSTAR":0.00063449383,"MEAN_MOTION_DOT":0.00011786,"MEAN_MOTION_DDOT":0}]
